{
  "type": "FeatureCollection",
  "metadata": {
    "coordinate_system": "WGS84",
    "campus": "SWU Beibei",
    "generated_at": "2026-10-02T10:32:28.459167+00:00",
    "source_snapshot": "Saved OSM response; generation does not refresh source geometry",
    "source_url": "https://api.openstreetmap.org/api/0.6/map?bbox=106.411,29.813,106.436,29.841",
    "attribution": "© OpenStreetMap contributors",
    "license": "ODbL-1.0",
    "license_url": "https://www.openstreetmap.org/copyright",
    "verification": "Community map and documented building correspondence; not a campus survey"
  },
  "features": [
    {
      "type": "Feature",
      "id": "beibei:1:way:368605820",
      "geometry": {
        "type": "Polygon",
        "coordinates": [
          [
            [
              106.4244597,
              29.828182
            ],
            [
              106.4246019,
              29.8281952
            ],
            [
              106.4246061,
              29.8281606
            ],
            [
              106.4247798,
              29.8281767
            ],
            [
              106.424967,
              29.8281941
            ],
            [
              106.4249609,
              29.8282432
            ],
            [
              106.4250706,
              29.8282534
            ],
            [
              106.4250555,
              29.8283756
            ],
            [
              106.4249983,
              29.8283702
            ],
            [
              106.4249814,
              29.8285061
            ],
            [
              106.4248568,
              29.8284945
            ],
            [
              106.4248744,
              29.8283532
            ],
            [
              106.4246379,
              29.8283311
            ],
            [
              106.4246208,
              29.8284696
            ],
            [
              106.4244903,
              29.8284574
            ],
            [
              106.4245077,
              29.8283167
            ],
            [
              106.4244437,
              29.8283107
            ],
            [
              106.4244597,
              29.828182
            ]
          ]
        ]
      },
      "properties": {
        "campus": "beibei",
        "code": "1",
        "name": "西南大学文学院",
        "aliases": [
          "1",
          "01",
          "1教",
          "01教",
          "1教学楼",
          "西南大学文学院"
        ],
        "source_url": "https://www.openstreetmap.org/way/368605820",
        "osm_version": "2",
        "osm_updated_at": "2020-09-13T10:50:53Z",
        "osm_tags": {
          "building": "university",
          "name": "西南大学文学院"
        },
        "verification": "public_map_unverified",
        "correspondence": {
          "code": "1",
          "expected_name": "西南大学文学院",
          "evidence_url": "https://www.swu.edu.cn/info/1153/2395.htm",
          "map_evidence_url": "https://120th.swu.edu.cn/xyhj/xydt.htm",
          "reason": "官网确认雨僧楼为第1教学楼及文学院用楼，校方北碚总图的文学院位置与该轮廓相符。",
          "verification": "document_correspondence_not_field_survey"
        }
      }
    },
    {
      "type": "Feature",
      "id": "beibei:3:way:843465275",
      "geometry": {
        "type": "Polygon",
        "coordinates": [
          [
            [
              106.4236644,
              29.8294338
            ],
            [
              106.4242119,
              29.8294955
            ],
            [
              106.4242291,
              29.8293802
            ],
            [
              106.4239589,
              29.8293497
            ],
            [
              106.4239849,
              29.8291762
            ],
            [
              106.4242425,
              29.8292052
            ],
            [
              106.424237,
              29.8292415
            ],
            [
              106.42437,
              29.8292565
            ],
            [
              106.4243992,
              29.8290612
            ],
            [
              106.4242689,
              29.8290466
            ],
            [
              106.4242636,
              29.8290822
            ],
            [
              106.4235654,
              29.8290037
            ],
            [
              106.4235699,
              29.8289741
            ],
            [
              106.4234325,
              29.8289587
            ],
            [
              106.4234033,
              29.8291545
            ],
            [
              106.4235416,
              29.82917
            ],
            [
              106.4235456,
              29.8291435
            ],
            [
              106.4238129,
              29.8291736
            ],
            [
              106.4237906,
              29.8293224
            ],
            [
              106.4236829,
              29.8293103
            ],
            [
              106.4236644,
              29.8294338
            ]
          ]
        ]
      },
      "properties": {
        "campus": "beibei",
        "code": "3",
        "name": "西南大学马克思主义学院",
        "aliases": [
          "3",
          "03",
          "3教",
          "03教",
          "3教学楼",
          "西南大学马克思主义学院"
        ],
        "source_url": "https://www.openstreetmap.org/way/843465275",
        "osm_version": "2",
        "osm_updated_at": "2021-10-28T15:03:19Z",
        "osm_tags": {
          "building": "university",
          "name": "西南大学马克思主义学院"
        },
        "verification": "public_map_unverified",
        "correspondence": {
          "code": "3",
          "expected_name": "西南大学马克思主义学院",
          "evidence_url": "https://www.amap.com/ssr/place/B001793E9K",
          "official_evidence_url": "https://www.swu.edu.cn/info/1153/2393.htm",
          "reason": "高德独立楼号地点与OSM轮廓空间对应；以近似坐标变换核对包含关系，保留原OSM轮廓，不将高德坐标直接写入WGS84地图。",
          "verification": "cross_map_correspondence_not_field_survey",
          "poi_coordinate_system": "GCJ-02",
          "poi_coordinates": [
            106.427965,
            29.826716
          ],
          "approx_wgs84_for_matching": [
            106.42393230917871,
            29.82920059445453
          ],
          "checked_on": "2026-10-02"
        }
      }
    },
    {
      "type": "Feature",
      "id": "beibei:4:way:843421765",
      "geometry": {
        "type": "Polygon",
        "coordinates": [
          [
            [
              106.4223113,
              29.8252859
            ],
            [
              106.4223231,
              29.8252055
            ],
            [
              106.4225055,
              29.8252256
            ],
            [
              106.4225109,
              29.8251888
            ],
            [
              106.4228091,
              29.8252218
            ],
            [
              106.4229047,
              29.8252641
            ],
            [
              106.4230989,
              29.8252854
            ],
            [
              106.4230789,
              29.8254226
            ],
            [
              106.4229848,
              29.8254123
            ],
            [
              106.422992,
              29.8253627
            ],
            [
              106.4228188,
              29.8253437
            ],
            [
              106.422815,
              29.8253697
            ],
            [
              106.4225057,
              29.8253357
            ],
            [
              106.4225098,
              29.8253078
            ],
            [
              106.4223113,
              29.8252859
            ]
          ]
        ]
      },
      "properties": {
        "campus": "beibei",
        "code": "4",
        "name": "新闻传媒学院",
        "aliases": [
          "4",
          "04",
          "4教",
          "04教",
          "4教学楼",
          "新闻传媒学院"
        ],
        "source_url": "https://www.openstreetmap.org/way/843421765",
        "osm_version": "2",
        "osm_updated_at": "2021-10-28T15:03:19Z",
        "osm_tags": {
          "building": "university",
          "name": "新闻传媒学院"
        },
        "verification": "public_map_unverified",
        "correspondence": {
          "code": "4",
          "expected_name": "新闻传媒学院",
          "evidence_url": "https://www.swu.edu.cn/info/1153/2392.htm",
          "map_evidence_url": "https://120th.swu.edu.cn/xyhj/xydt.htm",
          "reason": "对应咏修楼A栋的学院轮廓；B栋不沿用此轮廓。",
          "verification": "document_correspondence_not_field_survey",
          "model_variants": [
            "A"
          ]
        },
        "model_variants": [
          "A"
        ]
      }
    },
    {
      "type": "Feature",
      "id": "beibei:5:way:843465314",
      "geometry": {
        "type": "Polygon",
        "coordinates": [
          [
            [
              106.4171837,
              29.8236018
            ],
            [
              106.4175449,
              29.8238304
            ],
            [
              106.4171158,
              29.8243407
            ],
            [
              106.4170751,
              29.824315
            ],
            [
              106.4170295,
              29.8242196
            ],
            [
              106.4170598,
              29.8241746
            ],
            [
              106.4169427,
              29.8241152
            ],
            [
              106.4169947,
              29.8240381
            ],
            [
              106.4169973,
              29.8239403
            ],
            [
              106.4170161,
              29.8239101
            ],
            [
              106.4171087,
              29.8238
            ],
            [
              106.4170654,
              29.8237726
            ],
            [
              106.4171255,
              29.8237011
            ],
            [
              106.4171728,
              29.823731
            ],
            [
              106.4172104,
              29.8236863
            ],
            [
              106.4171466,
              29.823646
            ],
            [
              106.4171837,
              29.8236018
            ]
          ]
        ]
      },
      "properties": {
        "campus": "beibei",
        "code": "5",
        "name": "西南大学外国语学院",
        "aliases": [
          "5",
          "05",
          "5教",
          "05教",
          "5教学楼",
          "西南大学外国语学院"
        ],
        "source_url": "https://www.openstreetmap.org/way/843465314",
        "osm_version": "2",
        "osm_updated_at": "2021-10-28T15:03:19Z",
        "osm_tags": {
          "building": "university",
          "name": "西南大学外国语学院"
        },
        "verification": "public_map_unverified",
        "correspondence": {
          "code": "5",
          "expected_name": "西南大学外国语学院",
          "evidence_url": "https://www.swu.edu.cn/info/1153/2376.htm",
          "map_evidence_url": "https://120th.swu.edu.cn/xyhj/xydt.htm",
          "reason": "官网确认弘礼楼为第5教学楼、外国语学院用楼，与校方总图学院位置对应。",
          "verification": "document_correspondence_not_field_survey"
        }
      }
    },
    {
      "type": "Feature",
      "id": "beibei:6:way:843421762",
      "geometry": {
        "type": "Polygon",
        "coordinates": [
          [
            [
              106.4229393,
              29.8243555
            ],
            [
              106.4229676,
              29.8241201
            ],
            [
              106.4236482,
              29.8241816
            ],
            [
              106.4236199,
              29.8244171
            ],
            [
              106.4229393,
              29.8243555
            ]
          ]
        ]
      },
      "properties": {
        "campus": "beibei",
        "code": "6",
        "name": "",
        "aliases": [
          "6",
          "06",
          "6教",
          "06教",
          "6教学楼",
          ""
        ],
        "source_url": "https://www.openstreetmap.org/way/843421762",
        "osm_version": "1",
        "osm_updated_at": "2020-09-02T08:01:40Z",
        "osm_tags": {
          "building": "university"
        },
        "verification": "public_map_unverified",
        "correspondence": {
          "code": "6",
          "expected_name": null,
          "evidence_url": "https://www.amap.com/ssr/place/B0FFF33VMQ",
          "official_evidence_url": "https://www.swu.edu.cn/info/1153/2333.htm",
          "reason": "高德独立楼号地点与OSM轮廓空间对应；以近似坐标变换核对包含关系，保留原OSM轮廓，不将高德坐标直接写入WGS84地图。",
          "verification": "cross_map_correspondence_not_field_survey",
          "poi_coordinate_system": "GCJ-02",
          "poi_coordinates": [
            106.427334,
            29.821762
          ],
          "approx_wgs84_for_matching": [
            106.4233011675834,
            29.824246374028892
          ],
          "checked_on": "2026-10-02"
        }
      }
    },
    {
      "type": "Feature",
      "id": "beibei:7:way:843421764",
      "geometry": {
        "type": "Polygon",
        "coordinates": [
          [
            [
              106.4223996,
              29.8246443
            ],
            [
              106.4224017,
              29.8245702
            ],
            [
              106.4223683,
              29.8245695
            ],
            [
              106.4223708,
              29.8244798
            ],
            [
              106.4232021,
              29.8244975
            ],
            [
              106.4231995,
              29.824588
            ],
            [
              106.4225225,
              29.8245734
            ],
            [
              106.4225203,
              29.8246469
            ],
            [
              106.4223996,
              29.8246443
            ]
          ]
        ]
      },
      "properties": {
        "campus": "beibei",
        "code": "7",
        "name": "7教学楼",
        "aliases": [
          "7",
          "07",
          "7教",
          "07教",
          "7教学楼"
        ],
        "source_url": "https://www.openstreetmap.org/way/843421764",
        "osm_version": "2",
        "osm_updated_at": "2021-10-28T15:03:19Z",
        "osm_tags": {
          "building": "university",
          "name": "7教学楼"
        },
        "verification": "public_map_unverified"
      }
    },
    {
      "type": "Feature",
      "id": "beibei:8:way:843421763",
      "geometry": {
        "type": "Polygon",
        "coordinates": [
          [
            [
              106.4220962,
              29.8250578
            ],
            [
              106.4220613,
              29.8250159
            ],
            [
              106.4220631,
              29.8249466
            ],
            [
              106.4220213,
              29.8249458
            ],
            [
              106.4220221,
              29.8249148
            ],
            [
              106.4219776,
              29.8249139
            ],
            [
              106.4219849,
              29.8246308
            ],
            [
              106.4219245,
              29.8246296
            ],
            [
              106.4219836,
              29.8245179
            ],
            [
              106.4220807,
              29.8245003
            ],
            [
              106.4220766,
              29.8244521
            ],
            [
              106.4222644,
              29.8244533
            ],
            [
              106.4222642,
              29.8244792
            ],
            [
              106.4223708,
              29.8244798
            ],
            [
              106.4223683,
              29.8245695
            ],
            [
              106.4223693,
              29.8246721
            ],
            [
              106.4225584,
              29.8246733
            ],
            [
              106.4225564,
              29.8249149
            ],
            [
              106.4223674,
              29.8249137
            ],
            [
              106.4223665,
              29.8250178
            ],
            [
              106.4223261,
              29.8250175
            ],
            [
              106.4223257,
              29.8250591
            ],
            [
              106.4220962,
              29.8250578
            ]
          ]
        ]
      },
      "properties": {
        "campus": "beibei",
        "code": "8",
        "name": "8教学楼",
        "aliases": [
          "8",
          "08",
          "8教",
          "08教",
          "8教学楼"
        ],
        "source_url": "https://www.openstreetmap.org/way/843421763",
        "osm_version": "2",
        "osm_updated_at": "2021-08-17T10:27:56Z",
        "osm_tags": {
          "building": "university",
          "building:levels": "6",
          "name": "8教学楼",
          "name:en": "No.8 Teaching Building"
        },
        "verification": "public_map_unverified"
      }
    },
    {
      "type": "Feature",
      "id": "beibei:9:relation:12528371",
      "geometry": {
        "type": "Polygon",
        "coordinates": [
          [
            [
              106.4246431,
              29.829008
            ],
            [
              106.4246426,
              29.8289617
            ],
            [
              106.424696,
              29.8289613
            ],
            [
              106.4246955,
              29.8289122
            ],
            [
              106.4249268,
              29.8289104
            ],
            [
              106.4249265,
              29.8288798
            ],
            [
              106.4251524,
              29.828878
            ],
            [
              106.425153,
              29.8289344
            ],
            [
              106.4253698,
              29.8289326
            ],
            [
              106.42537,
              29.8289567
            ],
            [
              106.4254896,
              29.8289554
            ],
            [
              106.4256032,
              29.8289564
            ],
            [
              106.4256051,
              29.8288987
            ],
            [
              106.4256051,
              29.8288543
            ],
            [
              106.4253363,
              29.8288545
            ],
            [
              106.4253363,
              29.8288359
            ],
            [
              106.4251776,
              29.828836
            ],
            [
              106.4251775,
              29.8287348
            ],
            [
              106.4256048,
              29.8287344
            ],
            [
              106.4256051,
              29.8287811
            ],
            [
              106.4258219,
              29.8287812
            ],
            [
              106.4258219,
              29.8288239
            ],
            [
              106.4258688,
              29.8288239
            ],
            [
              106.4258688,
              29.8288646
            ],
            [
              106.4258454,
              29.8288646
            ],
            [
              106.4258454,
              29.8289319
            ],
            [
              106.4259119,
              29.8289317
            ],
            [
              106.4259123,
              29.829121
            ],
            [
              106.4258524,
              29.8291211
            ],
            [
              106.4258524,
              29.829149
            ],
            [
              106.4258811,
              29.8291489
            ],
            [
              106.4258813,
              29.8292384
            ],
            [
              106.4258426,
              29.8292385
            ],
            [
              106.4258428,
              29.8292848
            ],
            [
              106.4256063,
              29.8292853
            ],
            [
              106.4256064,
              29.8293437
            ],
            [
              106.4253906,
              29.8293441
            ],
            [
              106.4253904,
              29.8292829
            ],
            [
              106.4253075,
              29.8292831
            ],
            [
              106.4253073,
              29.8291974
            ],
            [
              106.4253861,
              29.8291973
            ],
            [
              106.4253821,
              29.8290377
            ],
            [
              106.4251557,
              29.8290392
            ],
            [
              106.4251553,
              29.8289971
            ],
            [
              106.4249307,
              29.8289989
            ],
            [
              106.4249313,
              29.8290541
            ],
            [
              106.4247,
              29.8290559
            ],
            [
              106.4246995,
              29.8290076
            ],
            [
              106.4246431,
              29.829008
            ]
          ],
          [
            [
              106.4254351,
              29.8291972
            ],
            [
              106.4254311,
              29.8290368
            ],
            [
              106.4254905,
              29.8290365
            ],
            [
              106.4254909,
              29.8290706
            ],
            [
              106.4255431,
              29.8290701
            ],
            [
              106.4255421,
              29.8289876
            ],
            [
              106.4256451,
              29.8289885
            ],
            [
              106.4256484,
              29.8288988
            ],
            [
              106.4257824,
              29.8288988
            ],
            [
              106.4257821,
              29.828932
            ],
            [
              106.4257825,
              29.8291126
            ],
            [
              106.425754,
              29.8291126
            ],
            [
              106.4257541,
              29.8291432
            ],
            [
              106.4256176,
              29.8291435
            ],
            [
              106.4256177,
              29.8291968
            ],
            [
              106.4254351,
              29.8291972
            ]
          ]
        ]
      },
      "properties": {
        "campus": "beibei",
        "code": "9",
        "name": "",
        "aliases": [
          "9",
          "09",
          "9教",
          "09教",
          "9教学楼",
          ""
        ],
        "source_url": "https://www.openstreetmap.org/relation/12528371",
        "osm_version": "1",
        "osm_updated_at": "2021-04-02T15:15:36Z",
        "osm_tags": {
          "building": "university",
          "type": "multipolygon"
        },
        "verification": "public_map_unverified",
        "correspondence": {
          "code": "9",
          "expected_name": null,
          "evidence_url": "https://www.amap.com/ssr/place/B0017948WL",
          "official_evidence_url": "https://www.swu.edu.cn/info/1153/2349.htm",
          "reason": "高德独立楼号地点与OSM轮廓空间对应；以近似坐标变换核对包含关系，保留原OSM轮廓，不将高德坐标直接写入WGS84地图。",
          "verification": "cross_map_correspondence_not_field_survey",
          "poi_coordinate_system": "GCJ-02",
          "poi_coordinates": [
            106.429626,
            29.826274
          ],
          "approx_wgs84_for_matching": [
            106.42559461801687,
            29.82876029552248
          ],
          "checked_on": "2026-10-02"
        }
      }
    },
    {
      "type": "Feature",
      "id": "beibei:10:way:843465255",
      "geometry": {
        "type": "Polygon",
        "coordinates": [
          [
            [
              106.4252748,
              29.8291984
            ],
            [
              106.4252753,
              29.8292846
            ],
            [
              106.425272,
              29.8293461
            ],
            [
              106.4252545,
              29.8293961
            ],
            [
              106.4252277,
              29.829431
            ],
            [
              106.4251647,
              29.8294706
            ],
            [
              106.4250413,
              29.8295206
            ],
            [
              106.424981,
              29.829538
            ],
            [
              106.4249541,
              29.829538
            ],
            [
              106.4249541,
              29.8295101
            ],
            [
              106.4249139,
              29.829509
            ],
            [
              106.4249179,
              29.8294391
            ],
            [
              106.42489,
              29.8294316
            ],
            [
              106.4248656,
              29.8294136
            ],
            [
              106.4248455,
              29.8293868
            ],
            [
              106.4248375,
              29.8293612
            ],
            [
              106.4248388,
              29.8292809
            ],
            [
              106.4248428,
              29.8292518
            ],
            [
              106.4248656,
              29.8292239
            ],
            [
              106.4248911,
              29.8292111
            ],
            [
              106.424938,
              29.8291983
            ],
            [
              106.4251741,
              29.8292006
            ],
            [
              106.4252748,
              29.8291984
            ]
          ]
        ]
      },
      "properties": {
        "campus": "beibei",
        "code": "10",
        "name": "10教学楼",
        "aliases": [
          "10",
          "10教",
          "10教学楼"
        ],
        "source_url": "https://www.openstreetmap.org/way/843465255",
        "osm_version": "2",
        "osm_updated_at": "2021-10-28T15:03:19Z",
        "osm_tags": {
          "building": "university",
          "building:levels": "6",
          "name": "10教学楼"
        },
        "verification": "public_map_unverified"
      }
    },
    {
      "type": "Feature",
      "id": "beibei:11:way:368605817",
      "geometry": {
        "type": "Polygon",
        "coordinates": [
          [
            [
              106.4247122,
              29.8265364
            ],
            [
              106.4250471,
              29.8267373
            ],
            [
              106.4249476,
              29.8268622
            ],
            [
              106.4248756,
              29.8268189
            ],
            [
              106.4247185,
              29.827016
            ],
            [
              106.4247871,
              29.8270572
            ],
            [
              106.4246836,
              29.827187
            ],
            [
              106.4243724,
              29.8270002
            ],
            [
              106.4244707,
              29.8268769
            ],
            [
              106.424583,
              29.8269443
            ],
            [
              106.4247416,
              29.8267454
            ],
            [
              106.424609,
              29.8266658
            ],
            [
              106.4247122,
              29.8265364
            ]
          ]
        ]
      },
      "properties": {
        "campus": "beibei",
        "code": "11",
        "name": "西南大学田家炳教育书院",
        "aliases": [
          "11",
          "11教",
          "11教学楼",
          "西南大学田家炳教育书院"
        ],
        "source_url": "https://www.openstreetmap.org/way/368605817",
        "osm_version": "2",
        "osm_updated_at": "2020-09-13T10:50:53Z",
        "osm_tags": {
          "building": "university",
          "name": "西南大学田家炳教育书院"
        },
        "verification": "public_map_unverified",
        "correspondence": {
          "code": "11",
          "expected_name": "西南大学田家炳教育书院",
          "evidence_url": "https://www.swu.edu.cn/info/1153/2334.htm",
          "map_evidence_url": "https://120th.swu.edu.cn/xyhj/xydt.htm",
          "reason": "OSM专名田家炳教育书院与官网第11教学楼名称一致。",
          "verification": "document_correspondence_not_field_survey"
        }
      }
    },
    {
      "type": "Feature",
      "id": "beibei:14:way:843421766",
      "geometry": {
        "type": "Polygon",
        "coordinates": [
          [
            [
              106.4229276,
              29.824957
            ],
            [
              106.4229302,
              29.8248331
            ],
            [
              106.4232554,
              29.8248384
            ],
            [
              106.4232574,
              29.8247431
            ],
            [
              106.4236006,
              29.8247487
            ],
            [
              106.4235976,
              29.8248918
            ],
            [
              106.4233947,
              29.8248886
            ],
            [
              106.4233878,
              29.8252071
            ],
            [
              106.4231662,
              29.8252036
            ],
            [
              106.4231658,
              29.8252244
            ],
            [
              106.4230741,
              29.8252229
            ],
            [
              106.4230774,
              29.8250666
            ],
            [
              106.4231673,
              29.825068
            ],
            [
              106.4231659,
              29.8251326
            ],
            [
              106.423317,
              29.825135
            ],
            [
              106.4233206,
              29.8249632
            ],
            [
              106.4229276,
              29.824957
            ]
          ]
        ]
      },
      "properties": {
        "campus": "beibei",
        "code": "14",
        "name": "14教学楼",
        "aliases": [
          "14",
          "14教",
          "14教学楼"
        ],
        "source_url": "https://www.openstreetmap.org/way/843421766",
        "osm_version": "2",
        "osm_updated_at": "2021-10-28T15:03:19Z",
        "osm_tags": {
          "building": "university",
          "name": "14教学楼"
        },
        "verification": "public_map_unverified"
      }
    },
    {
      "type": "Feature",
      "id": "beibei:15:way:843421773",
      "geometry": {
        "type": "Polygon",
        "coordinates": [
          [
            [
              106.4257806,
              29.824895
            ],
            [
              106.425617,
              29.8247252
            ],
            [
              106.4257377,
              29.8246716
            ],
            [
              106.4257082,
              29.8246018
            ],
            [
              106.4257591,
              29.8245879
            ],
            [
              106.4257752,
              29.8246205
            ],
            [
              106.4258181,
              29.8246251
            ],
            [
              106.4259844,
              29.8242668
            ],
            [
              106.4265316,
              29.8245157
            ],
            [
              106.4265611,
              29.8245413
            ],
            [
              106.4265772,
              29.8245739
            ],
            [
              106.4265745,
              29.8246181
            ],
            [
              106.4264136,
              29.8249113
            ],
            [
              106.4261775,
              29.8248113
            ],
            [
              106.42625,
              29.8246972
            ],
            [
              106.4263251,
              29.8247368
            ],
            [
              106.4263868,
              29.8246205
            ],
            [
              106.4260702,
              29.8244878
            ],
            [
              106.4259951,
              29.8246344
            ],
            [
              106.4260568,
              29.8246996
            ],
            [
              106.4257806,
              29.824895
            ]
          ]
        ]
      },
      "properties": {
        "campus": "beibei",
        "code": "15",
        "name": "西南大学美术学院",
        "aliases": [
          "15",
          "15教",
          "15教学楼",
          "西南大学美术学院"
        ],
        "source_url": "https://www.openstreetmap.org/way/843421773",
        "osm_version": "2",
        "osm_updated_at": "2021-10-28T15:03:19Z",
        "osm_tags": {
          "building": "university",
          "building:levels": "6",
          "name": "西南大学美术学院"
        },
        "verification": "public_map_unverified",
        "correspondence": {
          "code": "15",
          "expected_name": "西南大学美术学院",
          "evidence_url": "https://www.swu.edu.cn/info/1153/16901.htm",
          "map_evidence_url": "https://120th.swu.edu.cn/xyhj/xydt.htm",
          "reason": "官网确认至美楼为第15教学楼、美术学院用楼，与总图东侧美术学院位置相符。",
          "verification": "document_correspondence_not_field_survey"
        }
      }
    },
    {
      "type": "Feature",
      "id": "beibei:16:way:925243983",
      "geometry": {
        "type": "Polygon",
        "coordinates": [
          [
            [
              106.4233553,
              29.8238695
            ],
            [
              106.4232264,
              29.8237857
            ],
            [
              106.4234755,
              29.8234976
            ],
            [
              106.4235145,
              29.8234669
            ],
            [
              106.4236242,
              29.8234331
            ],
            [
              106.423672,
              29.8234392
            ],
            [
              106.4237251,
              29.8234607
            ],
            [
              106.4237587,
              29.8234868
            ],
            [
              106.42381,
              29.8235928
            ],
            [
              106.4238485,
              29.8235932
            ],
            [
              106.4238466,
              29.823665
            ],
            [
              106.4240271,
              29.8236662
            ],
            [
              106.4240259,
              29.8237968
            ],
            [
              106.4240388,
              29.8238009
            ],
            [
              106.4240516,
              29.823813
            ],
            [
              106.4240458,
              29.8240085
            ],
            [
              106.4240166,
              29.8241361
            ],
            [
              106.4235496,
              29.8240845
            ],
            [
              106.4235566,
              29.8239639
            ],
            [
              106.4239839,
              29.8240267
            ],
            [
              106.4239932,
              29.8238748
            ],
            [
              106.423852,
              29.8238768
            ],
            [
              106.4238531,
              29.8238333
            ],
            [
              106.4237095,
              29.8238353
            ],
            [
              106.423715,
              29.8236649
            ],
            [
              106.4237162,
              29.8235928
            ],
            [
              106.423695,
              29.8235375
            ],
            [
              106.4236419,
              29.8234991
            ],
            [
              106.4235693,
              29.8235221
            ],
            [
              106.4235499,
              29.8235482
            ],
            [
              106.4235287,
              29.8235862
            ],
            [
              106.4235587,
              29.823605
            ],
            [
              106.423564,
              29.8236281
            ],
            [
              106.4233553,
              29.8238695
            ]
          ]
        ]
      },
      "properties": {
        "campus": "beibei",
        "code": "16",
        "name": "",
        "aliases": [
          "16",
          "16教",
          "16教学楼",
          ""
        ],
        "source_url": "https://www.openstreetmap.org/way/925243983",
        "osm_version": "1",
        "osm_updated_at": "2021-04-02T15:15:36Z",
        "osm_tags": {
          "building": "university"
        },
        "verification": "public_map_unverified",
        "correspondence": {
          "code": "16",
          "expected_name": null,
          "evidence_url": "https://www.amap.com/ssr/place/B00170AGY2",
          "official_evidence_url": "https://www.swu.edu.cn/info/1153/16902.htm",
          "reason": "高德独立楼号地点与OSM轮廓空间对应；以近似坐标变换核对包含关系，保留原OSM轮廓，不将高德坐标直接写入WGS84地图。 课表原16教对应厚乐楼A栋，原19教对应B栋，两处POI分别落入不同轮廓。",
          "verification": "cross_map_correspondence_not_field_survey",
          "poi_coordinate_system": "GCJ-02",
          "poi_coordinates": [
            106.427422,
            29.821148
          ],
          "approx_wgs84_for_matching": [
            106.42338926749174,
            29.82363250530368
          ],
          "checked_on": "2026-10-02",
          "numbering_evidence_url": "https://music.swu.edu.cn/info/1032/4253.htm"
        }
      }
    },
    {
      "type": "Feature",
      "id": "beibei:17:way:843421806",
      "geometry": {
        "type": "Polygon",
        "coordinates": [
          [
            [
              106.4286216,
              29.8319984
            ],
            [
              106.4287662,
              29.8320728
            ],
            [
              106.4288014,
              29.8320212
            ],
            [
              106.4290532,
              29.8321507
            ],
            [
              106.4290179,
              29.8322024
            ],
            [
              106.4291323,
              29.8322612
            ],
            [
              106.4292782,
              29.8320477
            ],
            [
              106.4291938,
              29.8320043
            ],
            [
              106.4292293,
              29.8319523
            ],
            [
              106.4289476,
              29.8318076
            ],
            [
              106.4289131,
              29.8318581
            ],
            [
              106.4287979,
              29.8317989
            ],
            [
              106.4287059,
              29.8319336
            ],
            [
              106.4286763,
              29.8319184
            ],
            [
              106.4286216,
              29.8319984
            ]
          ]
        ]
      },
      "properties": {
        "campus": "beibei",
        "code": "17",
        "name": "",
        "aliases": [
          "17",
          "17教",
          "17教学楼",
          ""
        ],
        "source_url": "https://www.openstreetmap.org/way/843421806",
        "osm_version": "1",
        "osm_updated_at": "2020-09-02T08:01:40Z",
        "osm_tags": {
          "building": "university"
        },
        "verification": "public_map_unverified",
        "correspondence": {
          "code": "17",
          "expected_name": null,
          "evidence_url": "https://www.amap.com/ssr/place/B0JGN5XWIG",
          "official_evidence_url": "https://www.swu.edu.cn/info/1153/2389.htm",
          "reason": "高德独立楼号地点与OSM轮廓空间对应；以近似坐标变换核对包含关系，保留原OSM轮廓，不将高德坐标直接写入WGS84地图。",
          "verification": "cross_map_correspondence_not_field_survey",
          "poi_coordinate_system": "GCJ-02",
          "poi_coordinates": [
            106.432974,
            29.829512
          ],
          "approx_wgs84_for_matching": [
            106.42894541622792,
            29.832001788301383
          ],
          "checked_on": "2026-10-02"
        }
      }
    },
    {
      "type": "Feature",
      "id": "beibei:19:way:843421759",
      "geometry": {
        "type": "Polygon",
        "coordinates": [
          [
            [
              106.423038,
              29.823321
            ],
            [
              106.4231768,
              29.8232334
            ],
            [
              106.4232349,
              29.8233027
            ],
            [
              106.4232955,
              29.8232644
            ],
            [
              106.4232609,
              29.8232232
            ],
            [
              106.4233043,
              29.8231958
            ],
            [
              106.4233165,
              29.8231728
            ],
            [
              106.4232297,
              29.8230693
            ],
            [
              106.4231235,
              29.8231363
            ],
            [
              106.4229201,
              29.8228936
            ],
            [
              106.4231299,
              29.8227613
            ],
            [
              106.4235413,
              29.823252
            ],
            [
              106.4231743,
              29.8234836
            ],
            [
              106.423038,
              29.823321
            ]
          ]
        ]
      },
      "properties": {
        "campus": "beibei",
        "code": "19",
        "name": "西南大学音乐学院",
        "aliases": [
          "19",
          "19教",
          "19教学楼",
          "西南大学音乐学院"
        ],
        "source_url": "https://www.openstreetmap.org/way/843421759",
        "osm_version": "2",
        "osm_updated_at": "2021-10-28T15:03:19Z",
        "osm_tags": {
          "building": "university",
          "name": "西南大学音乐学院"
        },
        "verification": "public_map_unverified",
        "correspondence": {
          "code": "19",
          "expected_name": "西南大学音乐学院",
          "evidence_url": "https://www.amap.com/ssr/place/B001793F19",
          "official_evidence_url": "https://www.swu.edu.cn/info/1153/16903.htm",
          "reason": "高德独立楼号地点与OSM轮廓空间对应；以近似坐标变换核对包含关系，保留原OSM轮廓，不将高德坐标直接写入WGS84地图。 课表原16教对应厚乐楼A栋，原19教对应B栋，两处POI分别落入不同轮廓。",
          "verification": "cross_map_correspondence_not_field_survey",
          "poi_coordinate_system": "GCJ-02",
          "poi_coordinates": [
            106.427343,
            29.820731
          ],
          "approx_wgs84_for_matching": [
            106.42331023814896,
            29.823215464040096
          ],
          "checked_on": "2026-10-02",
          "numbering_evidence_url": "https://music.swu.edu.cn/info/1032/4253.htm",
          "model_variants": [
            "B"
          ]
        },
        "model_variants": [
          "B"
        ]
      }
    },
    {
      "type": "Feature",
      "id": "beibei:22:way:843421731",
      "geometry": {
        "type": "Polygon",
        "coordinates": [
          [
            [
              106.4192576,
              29.8225153
            ],
            [
              106.4191725,
              29.8224139
            ],
            [
              106.4194967,
              29.8222091
            ],
            [
              106.4195818,
              29.8223106
            ],
            [
              106.4192576,
              29.8225153
            ]
          ]
        ]
      },
      "properties": {
        "campus": "beibei",
        "code": "22",
        "name": "22教学楼",
        "aliases": [
          "22",
          "22教",
          "22教学楼"
        ],
        "source_url": "https://www.openstreetmap.org/way/843421731",
        "osm_version": "2",
        "osm_updated_at": "2021-10-28T15:03:19Z",
        "osm_tags": {
          "building": "university",
          "name": "22教学楼"
        },
        "verification": "public_map_unverified"
      }
    },
    {
      "type": "Feature",
      "id": "beibei:23:way:843465313",
      "geometry": {
        "type": "Polygon",
        "coordinates": [
          [
            [
              106.4174024,
              29.8234005
            ],
            [
              106.4174962,
              29.8233307
            ],
            [
              106.4175687,
              29.8232911
            ],
            [
              106.4176625,
              29.8232539
            ],
            [
              106.4177886,
              29.8232213
            ],
            [
              106.4179468,
              29.823205
            ],
            [
              106.4180863,
              29.8232213
            ],
            [
              106.4182231,
              29.8232655
            ],
            [
              106.4182768,
              29.8232865
            ],
            [
              106.418258,
              29.823319
            ],
            [
              106.4183063,
              29.8233353
            ],
            [
              106.4181748,
              29.8235005
            ],
            [
              106.4182231,
              29.8235331
            ],
            [
              106.4181105,
              29.8236402
            ],
            [
              106.4180461,
              29.8236053
            ],
            [
              106.4180059,
              29.823589
            ],
            [
              106.417971,
              29.8235797
            ],
            [
              106.4179039,
              29.8235797
            ],
            [
              106.4178932,
              29.8233516
            ],
            [
              106.4177323,
              29.8233865
            ],
            [
              106.4176572,
              29.8234121
            ],
            [
              106.4176116,
              29.8234354
            ],
            [
              106.4175257,
              29.8235052
            ],
            [
              106.4174024,
              29.8234005
            ]
          ]
        ]
      },
      "properties": {
        "campus": "beibei",
        "code": "23",
        "name": "西南大学心理学部",
        "aliases": [
          "23",
          "23教",
          "23教学楼",
          "西南大学心理学部"
        ],
        "source_url": "https://www.openstreetmap.org/way/843465313",
        "osm_version": "2",
        "osm_updated_at": "2021-10-28T15:03:19Z",
        "osm_tags": {
          "building": "university",
          "name": "西南大学心理学部"
        },
        "verification": "public_map_unverified",
        "correspondence": {
          "code": "23",
          "expected_name": "西南大学心理学部",
          "evidence_url": "https://www.swu.edu.cn/info/1153/2360.htm",
          "map_evidence_url": "https://120th.swu.edu.cn/xyhj/xydt.htm",
          "reason": "官网确认润心楼为第23教学楼、心理学部用楼，与总图相邻外国语学院位置相符。",
          "verification": "document_correspondence_not_field_survey"
        }
      }
    },
    {
      "type": "Feature",
      "id": "beibei:24:way:350242130",
      "geometry": {
        "type": "Polygon",
        "coordinates": [
          [
            [
              106.4185311,
              29.8239634
            ],
            [
              106.4186846,
              29.8238107
            ],
            [
              106.4193062,
              29.824303
            ],
            [
              106.419156,
              29.8244497
            ],
            [
              106.4190085,
              29.8243349
            ],
            [
              106.418953,
              29.8243948
            ],
            [
              106.4187574,
              29.8242406
            ],
            [
              106.4188234,
              29.8241909
            ],
            [
              106.4185311,
              29.8239634
            ]
          ]
        ]
      },
      "properties": {
        "campus": "beibei",
        "code": "24",
        "name": "西南大学地理科学学院",
        "aliases": [
          "24",
          "24教",
          "24教学楼",
          "西南大学地理科学学院"
        ],
        "source_url": "https://www.openstreetmap.org/way/350242130",
        "osm_version": "3",
        "osm_updated_at": "2020-09-02T10:14:41Z",
        "osm_tags": {
          "building": "university",
          "building:levels": "5",
          "name": "西南大学地理科学学院"
        },
        "verification": "public_map_unverified",
        "correspondence": {
          "code": "24",
          "expected_name": "西南大学地理科学学院",
          "evidence_url": "https://www.swu.edu.cn/info/1153/2361.htm",
          "map_evidence_url": "https://120th.swu.edu.cn/xyhj/xydt.htm",
          "reason": "官网确认启智楼为第24教学楼、地理科学学院用楼，与北区楼群位置对应。",
          "verification": "document_correspondence_not_field_survey"
        }
      }
    },
    {
      "type": "Feature",
      "id": "beibei:25:way:843465238",
      "geometry": {
        "type": "Polygon",
        "coordinates": [
          [
            [
              106.4198804,
              29.8248507
            ],
            [
              106.4206276,
              29.8250675
            ],
            [
              106.4205155,
              29.8253754
            ],
            [
              106.4199948,
              29.8252397
            ],
            [
              106.4200088,
              29.825189
            ],
            [
              106.4199692,
              29.8251951
            ],
            [
              106.4199248,
              29.825191
            ],
            [
              106.4198944,
              29.8251606
            ],
            [
              106.4198702,
              29.8251321
            ],
            [
              106.4198677,
              29.8250996
            ],
            [
              106.4198905,
              29.8250477
            ],
            [
              106.4199191,
              29.825026
            ],
            [
              106.4199391,
              29.8250166
            ],
            [
              106.4199453,
              29.8250019
            ],
            [
              106.4198328,
              29.8249672
            ],
            [
              106.4198804,
              29.8248507
            ]
          ]
        ]
      },
      "properties": {
        "campus": "beibei",
        "code": "25",
        "name": "25教学楼",
        "aliases": [
          "25",
          "25教",
          "25教学楼"
        ],
        "source_url": "https://www.openstreetmap.org/way/843465238",
        "osm_version": "3",
        "osm_updated_at": "2022-08-06T15:07:35Z",
        "osm_tags": {
          "building": "university",
          "building:levels": "19",
          "name": "25教学楼",
          "name_1": "西南大学计算机与信息科学学院 软件学院"
        },
        "verification": "public_map_unverified"
      }
    },
    {
      "type": "Feature",
      "id": "beibei:26:way:210254156",
      "geometry": {
        "type": "Polygon",
        "coordinates": [
          [
            [
              106.4175752,
              29.8251598
            ],
            [
              106.4176535,
              29.8251047
            ],
            [
              106.4177391,
              29.8250641
            ],
            [
              106.4178839,
              29.8250274
            ],
            [
              106.4180204,
              29.8250155
            ],
            [
              106.4181576,
              29.8250169
            ],
            [
              106.4182676,
              29.8250442
            ],
            [
              106.4183843,
              29.8250814
            ],
            [
              106.4184751,
              29.825119
            ],
            [
              106.4186279,
              29.8252255
            ],
            [
              106.4184923,
              29.8253122
            ],
            [
              106.4184199,
              29.8252452
            ],
            [
              106.418354,
              29.8252098
            ],
            [
              106.4183295,
              29.8252441
            ],
            [
              106.4183888,
              29.8252715
            ],
            [
              106.4184541,
              29.8253264
            ],
            [
              106.4183603,
              29.8253473
            ],
            [
              106.4182322,
              29.8253759
            ],
            [
              106.4180752,
              29.8253804
            ],
            [
              106.4179366,
              29.825356
            ],
            [
              106.4178289,
              29.8253236
            ],
            [
              106.4177133,
              29.8252741
            ],
            [
              106.4177704,
              29.8252468
            ],
            [
              106.4177522,
              29.8252056
            ],
            [
              106.417677,
              29.825244
            ],
            [
              106.4175752,
              29.8251598
            ]
          ]
        ]
      },
      "properties": {
        "campus": "beibei",
        "code": "26",
        "name": "26教学楼",
        "aliases": [
          "26",
          "26教",
          "26教学楼"
        ],
        "source_url": "https://www.openstreetmap.org/way/210254156",
        "osm_version": "3",
        "osm_updated_at": "2021-10-28T15:03:19Z",
        "osm_tags": {
          "building": "university",
          "building:levels": "6",
          "name": "26教学楼",
          "source": "bing"
        },
        "verification": "public_map_unverified"
      }
    },
    {
      "type": "Feature",
      "id": "beibei:27:way:210254155",
      "geometry": {
        "type": "Polygon",
        "coordinates": [
          [
            [
              106.4181807,
              29.8259003
            ],
            [
              106.4182119,
              29.8258143
            ],
            [
              106.4182571,
              29.8257435
            ],
            [
              106.4183279,
              29.8256757
            ],
            [
              106.4183893,
              29.8256228
            ],
            [
              106.4184667,
              29.8255805
            ],
            [
              106.4185495,
              29.8255474
            ],
            [
              106.4186495,
              29.8255087
            ],
            [
              106.4187598,
              29.8254992
            ],
            [
              106.4188817,
              29.8255155
            ],
            [
              106.4188235,
              29.8256307
            ],
            [
              106.4187248,
              29.8257509
            ],
            [
              106.4185649,
              29.825856
            ],
            [
              106.4184681,
              29.8258872
            ],
            [
              106.4183411,
              29.8259096
            ],
            [
              106.4181807,
              29.8259003
            ]
          ]
        ]
      },
      "properties": {
        "campus": "beibei",
        "code": "27",
        "name": "27教学楼",
        "aliases": [
          "27",
          "27教",
          "27教学楼"
        ],
        "source_url": "https://www.openstreetmap.org/way/210254155",
        "osm_version": "3",
        "osm_updated_at": "2021-10-28T15:03:19Z",
        "osm_tags": {
          "building": "university",
          "building:levels": "4",
          "name": "27教学楼",
          "source": "bing"
        },
        "verification": "public_map_unverified"
      }
    },
    {
      "type": "Feature",
      "id": "beibei:28:way:210254157",
      "geometry": {
        "type": "Polygon",
        "coordinates": [
          [
            [
              106.418963,
              29.8261621
            ],
            [
              106.4189409,
              29.8260334
            ],
            [
              106.4189543,
              29.8259284
            ],
            [
              106.4189852,
              29.8258367
            ],
            [
              106.4190955,
              29.8257155
            ],
            [
              106.4192321,
              29.8256416
            ],
            [
              106.4192545,
              29.8257854
            ],
            [
              106.4192363,
              29.825911
            ],
            [
              106.4191838,
              29.8260138
            ],
            [
              106.4190908,
              29.8260847
            ],
            [
              106.418963,
              29.8261621
            ]
          ]
        ]
      },
      "properties": {
        "campus": "beibei",
        "code": "28",
        "name": "28教学楼",
        "aliases": [
          "28",
          "28教",
          "28教学楼"
        ],
        "source_url": "https://www.openstreetmap.org/way/210254157",
        "osm_version": "3",
        "osm_updated_at": "2021-10-28T15:03:19Z",
        "osm_tags": {
          "building": "university",
          "building:levels": "4",
          "name": "28教学楼",
          "source": "bing"
        },
        "verification": "public_map_unverified"
      }
    },
    {
      "type": "Feature",
      "id": "beibei:29:way:843465226",
      "geometry": {
        "type": "Polygon",
        "coordinates": [
          [
            [
              106.4192265,
              29.8247534
            ],
            [
              106.4191486,
              29.8246202
            ],
            [
              106.4190566,
              29.8246662
            ],
            [
              106.4189646,
              29.8247522
            ],
            [
              106.4189115,
              29.8248505
            ],
            [
              106.4188796,
              29.8249549
            ],
            [
              106.4188371,
              29.8249549
            ],
            [
              106.4188478,
              29.8250838
            ],
            [
              106.4188655,
              29.8251575
            ],
            [
              106.4189221,
              29.8252281
            ],
            [
              106.4189575,
              29.8252189
            ],
            [
              106.4190389,
              29.8253018
            ],
            [
              106.4191203,
              29.825354
            ],
            [
              106.4191061,
              29.8253878
            ],
            [
              106.4192265,
              29.8254338
            ],
            [
              106.4193185,
              29.8254461
            ],
            [
              106.4193822,
              29.82544
            ],
            [
              106.4193893,
              29.8253939
            ],
            [
              106.4195061,
              29.8253755
            ],
            [
              106.4195839,
              29.8253233
            ],
            [
              106.4196689,
              29.8252803
            ],
            [
              106.4196054,
              29.8252148
            ],
            [
              106.4195523,
              29.8251687
            ],
            [
              106.4194707,
              29.825225
            ],
            [
              106.4193539,
              29.8252465
            ],
            [
              106.4192194,
              29.8252312
            ],
            [
              106.4191167,
              29.8251759
            ],
            [
              106.4190566,
              29.8251022
            ],
            [
              106.4190495,
              29.8249825
            ],
            [
              106.4190601,
              29.8248996
            ],
            [
              106.4191274,
              29.8248105
            ],
            [
              106.4192265,
              29.8247534
            ]
          ]
        ]
      },
      "properties": {
        "campus": "beibei",
        "code": "29",
        "name": "29教学楼",
        "aliases": [
          "29",
          "29教",
          "29教学楼"
        ],
        "source_url": "https://www.openstreetmap.org/way/843465226",
        "osm_version": "2",
        "osm_updated_at": "2021-10-28T15:03:19Z",
        "osm_tags": {
          "building": "university",
          "building:levels": "5",
          "name": "29教学楼"
        },
        "verification": "public_map_unverified"
      }
    },
    {
      "type": "Feature",
      "id": "beibei:30:relation:11548065",
      "geometry": {
        "type": "Polygon",
        "coordinates": [
          [
            [
              106.4142228,
              29.8141472
            ],
            [
              106.4142018,
              29.8141276
            ],
            [
              106.4139153,
              29.8140108
            ],
            [
              106.4139465,
              29.8139473
            ],
            [
              106.4136622,
              29.8138216
            ],
            [
              106.4136236,
              29.8138919
            ],
            [
              106.4132924,
              29.8137569
            ],
            [
              106.4131013,
              29.8138104
            ],
            [
              106.4131506,
              29.8139387
            ],
            [
              106.4131968,
              29.8139227
            ],
            [
              106.4133571,
              29.8143878
            ],
            [
              106.4133108,
              29.8144039
            ],
            [
              106.4133478,
              29.8145215
            ],
            [
              106.4142567,
              29.8142782
            ],
            [
              106.4142228,
              29.8141472
            ]
          ],
          [
            [
              106.4139998,
              29.8141887
            ],
            [
              106.4140059,
              29.8142024
            ],
            [
              106.4135296,
              29.8143237
            ],
            [
              106.413388,
              29.8139381
            ],
            [
              106.4139998,
              29.8141887
            ]
          ]
        ]
      },
      "properties": {
        "campus": "beibei",
        "code": "30",
        "name": "西南大学30教学楼",
        "aliases": [
          "30",
          "30教",
          "30教学楼",
          "西南大学30教学楼"
        ],
        "source_url": "https://www.openstreetmap.org/relation/11548065",
        "osm_version": "2",
        "osm_updated_at": "2021-04-02T15:16:23Z",
        "osm_tags": {
          "building": "university",
          "building:levels": "7",
          "name": "西南大学30教学楼",
          "name:en": "No.30 Teaching Building",
          "type": "multipolygon"
        },
        "verification": "public_map_unverified"
      }
    },
    {
      "type": "Feature",
      "id": "beibei:31:relation:11546904",
      "geometry": {
        "type": "Polygon",
        "coordinates": [
          [
            [
              106.4167499,
              29.8165007
            ],
            [
              106.4166016,
              29.8164213
            ],
            [
              106.4161572,
              29.8165307
            ],
            [
              106.4161784,
              29.8165956
            ],
            [
              106.4162479,
              29.8165818
            ],
            [
              106.4162515,
              29.8166008
            ],
            [
              106.4162601,
              29.8166453
            ],
            [
              106.4162133,
              29.8167247
            ],
            [
              106.4163475,
              29.8167899
            ],
            [
              106.4169268,
              29.8166365
            ],
            [
              106.4169105,
              29.8164566
            ],
            [
              106.4168252,
              29.8164584
            ],
            [
              106.4167621,
              29.8164901
            ],
            [
              106.4167499,
              29.8165007
            ]
          ],
          [
            [
              106.4163132,
              29.8165624
            ],
            [
              106.416502,
              29.8165159
            ],
            [
              106.4165853,
              29.8164954
            ],
            [
              106.4167073,
              29.8165377
            ],
            [
              106.4166808,
              29.8165765
            ],
            [
              106.4166686,
              29.8166153
            ],
            [
              106.4164593,
              29.8166682
            ],
            [
              106.4163251,
              29.81661
            ],
            [
              106.4163132,
              29.8165624
            ]
          ]
        ]
      },
      "properties": {
        "campus": "beibei",
        "code": "31",
        "name": "31教学楼",
        "aliases": [
          "31",
          "31教",
          "31教学楼"
        ],
        "source_url": "https://www.openstreetmap.org/relation/11546904",
        "osm_version": "2",
        "osm_updated_at": "2021-04-02T15:16:23Z",
        "osm_tags": {
          "building": "university",
          "building:levels": "6",
          "name": "31教学楼",
          "name:en": "No.31 Teaching Building",
          "type": "multipolygon"
        },
        "verification": "public_map_unverified"
      }
    },
    {
      "type": "Feature",
      "id": "beibei:32:way:925243974",
      "geometry": {
        "type": "Polygon",
        "coordinates": [
          [
            [
              106.4126086,
              29.8162082
            ],
            [
              106.4125723,
              29.8161021
            ],
            [
              106.4125437,
              29.8161094
            ],
            [
              106.4125159,
              29.8160283
            ],
            [
              106.4129413,
              29.8159184
            ],
            [
              106.4133196,
              29.8158207
            ],
            [
              106.4133258,
              29.8158389
            ],
            [
              106.4134087,
              29.815814
            ],
            [
              106.4134194,
              29.8158652
            ],
            [
              106.4133873,
              29.8158722
            ],
            [
              106.4134017,
              29.8159192
            ],
            [
              106.4134181,
              29.8159723
            ],
            [
              106.4134597,
              29.8159653
            ],
            [
              106.4134691,
              29.8160072
            ],
            [
              106.4134248,
              29.8160211
            ],
            [
              106.4134557,
              29.8160421
            ],
            [
              106.4134744,
              29.8160642
            ],
            [
              106.4134637,
              29.8161072
            ],
            [
              106.4134168,
              29.816141
            ],
            [
              106.4133323,
              29.8161677
            ],
            [
              106.413233,
              29.8161701
            ],
            [
              106.4131767,
              29.8161328
            ],
            [
              106.4131555,
              29.8161383
            ],
            [
              106.413169,
              29.8161775
            ],
            [
              106.4130866,
              29.8161988
            ],
            [
              106.4130473,
              29.8160849
            ],
            [
              106.4130777,
              29.8160849
            ],
            [
              106.4130668,
              29.8160528
            ],
            [
              106.4128875,
              29.8160987
            ],
            [
              106.4128816,
              29.8160814
            ],
            [
              106.4126865,
              29.8161314
            ],
            [
              106.4127043,
              29.8161836
            ],
            [
              106.4126086,
              29.8162082
            ]
          ]
        ]
      },
      "properties": {
        "campus": "beibei",
        "code": "32",
        "name": "32教学楼",
        "aliases": [
          "32",
          "32教",
          "32教学楼"
        ],
        "source_url": "https://www.openstreetmap.org/way/925243974",
        "osm_version": "1",
        "osm_updated_at": "2021-04-02T15:15:36Z",
        "osm_tags": {
          "building": "university",
          "name": "32教学楼",
          "name:en": "No.32 Teaching Building"
        },
        "verification": "public_map_unverified"
      }
    },
    {
      "type": "Feature",
      "id": "beibei:33:way:305935504",
      "geometry": {
        "type": "Polygon",
        "coordinates": [
          [
            [
              106.4140557,
              29.8158293
            ],
            [
              106.4141101,
              29.8159975
            ],
            [
              106.4146074,
              29.8158766
            ],
            [
              106.4146715,
              29.8160748
            ],
            [
              106.4142121,
              29.8161865
            ],
            [
              106.4139758,
              29.816244
            ],
            [
              106.4139243,
              29.8160848
            ],
            [
              106.4137563,
              29.8155649
            ],
            [
              106.4139699,
              29.8155129
            ],
            [
              106.4140181,
              29.815662
            ],
            [
              106.4144889,
              29.8155475
            ],
            [
              106.4145418,
              29.815711
            ],
            [
              106.4140557,
              29.8158293
            ]
          ]
        ]
      },
      "properties": {
        "campus": "beibei",
        "code": "33",
        "name": "西南大学33教学楼",
        "aliases": [
          "33",
          "33教",
          "33教学楼",
          "西南大学33教学楼"
        ],
        "source_url": "https://www.openstreetmap.org/way/305935504",
        "osm_version": "3",
        "osm_updated_at": "2020-08-26T17:42:14Z",
        "osm_tags": {
          "alt_name": "33教学楼,同庆楼",
          "building": "university",
          "building:levels": "7",
          "name": "西南大学33教学楼",
          "name:en": "No.33 Teaching Building"
        },
        "verification": "public_map_unverified"
      }
    },
    {
      "type": "Feature",
      "id": "beibei:35:way:304932135",
      "geometry": {
        "type": "Polygon",
        "coordinates": [
          [
            [
              106.4115931,
              29.8145422
            ],
            [
              106.4114084,
              29.8140013
            ],
            [
              106.4117025,
              29.8139257
            ],
            [
              106.4117253,
              29.8139927
            ],
            [
              106.4117922,
              29.8141886
            ],
            [
              106.4120226,
              29.8141294
            ],
            [
              106.4121177,
              29.814105
            ],
            [
              106.4122125,
              29.814383
            ],
            [
              106.4115931,
              29.8145422
            ]
          ]
        ]
      },
      "properties": {
        "campus": "beibei",
        "code": "35",
        "name": "西南大学资源与环境学院",
        "aliases": [
          "35",
          "35教",
          "35教学楼",
          "西南大学资源与环境学院"
        ],
        "source_url": "https://www.openstreetmap.org/way/304932135",
        "osm_version": "5",
        "osm_updated_at": "2020-08-26T16:18:32Z",
        "osm_tags": {
          "building": "university",
          "building:levels": "7",
          "name": "西南大学资源与环境学院"
        },
        "verification": "public_map_unverified",
        "correspondence": {
          "code": "35",
          "expected_name": "西南大学资源与环境学院",
          "evidence_url": "https://www.swu.edu.cn/info/1153/2331.htm",
          "map_evidence_url": "https://120th.swu.edu.cn/xyhj/xydt.htm",
          "reason": "官网确认逸夫楼为第35教学楼、资源环境学院用楼，南区总图及照片双翼结构与轮廓对应。",
          "verification": "document_correspondence_not_field_survey"
        }
      }
    },
    {
      "type": "Feature",
      "id": "beibei:37:way:304932137",
      "geometry": {
        "type": "Polygon",
        "coordinates": [
          [
            [
              106.4123792,
              29.8155577
            ],
            [
              106.413247,
              29.8153415
            ],
            [
              106.4132158,
              29.8152474
            ],
            [
              106.413268,
              29.8152344
            ],
            [
              106.4132446,
              29.8151636
            ],
            [
              106.4132173,
              29.8150812
            ],
            [
              106.4131549,
              29.8150968
            ],
            [
              106.4131409,
              29.8150548
            ],
            [
              106.412917,
              29.8151106
            ],
            [
              106.412939,
              29.8151772
            ],
            [
              106.4129707,
              29.8151693
            ],
            [
              106.4130004,
              29.815259
            ],
            [
              106.4123352,
              29.8154247
            ],
            [
              106.4123792,
              29.8155577
            ]
          ]
        ]
      },
      "properties": {
        "campus": "beibei",
        "code": "37",
        "name": "动物科技学院",
        "aliases": [
          "37",
          "37教",
          "37教学楼",
          "动物科技学院"
        ],
        "source_url": "https://www.openstreetmap.org/way/304932137",
        "osm_version": "9",
        "osm_updated_at": "2020-08-26T17:42:14Z",
        "osm_tags": {
          "alt_name": "西南大学37教学楼,宏朴楼",
          "building": "university",
          "building:levels": "6",
          "name": "动物科技学院",
          "name:en": "College of Animal Science and Technology",
          "source": "西南大学"
        },
        "verification": "public_map_unverified"
      }
    },
    {
      "type": "Feature",
      "id": "beibei:38:way:840894874",
      "geometry": {
        "type": "Polygon",
        "coordinates": [
          [
            [
              106.4145133,
              29.8179607
            ],
            [
              106.4144006,
              29.8176106
            ],
            [
              106.4145241,
              29.8175807
            ],
            [
              106.4145287,
              29.817595
            ],
            [
              106.4146814,
              29.817558
            ],
            [
              106.4146876,
              29.8175393
            ],
            [
              106.4148304,
              29.8175016
            ],
            [
              106.4148381,
              29.8175234
            ],
            [
              106.4149957,
              29.8174818
            ],
            [
              106.4149988,
              29.8174658
            ],
            [
              106.4151284,
              29.8174344
            ],
            [
              106.4152413,
              29.8177852
            ],
            [
              106.415099,
              29.8178197
            ],
            [
              106.4150763,
              29.8178252
            ],
            [
              106.4150528,
              29.8177523
            ],
            [
              106.4146574,
              29.8178482
            ],
            [
              106.4146806,
              29.8179201
            ],
            [
              106.414565,
              29.8179482
            ],
            [
              106.4145133,
              29.8179607
            ]
          ]
        ]
      },
      "properties": {
        "campus": "beibei",
        "code": "38",
        "name": "西南大学法学院（38教学楼）",
        "aliases": [
          "38",
          "38教",
          "38教学楼",
          "西南大学法学院（38教学楼）"
        ],
        "source_url": "https://www.openstreetmap.org/way/840894874",
        "osm_version": "1",
        "osm_updated_at": "2020-08-26T11:57:30Z",
        "osm_tags": {
          "building": "university",
          "building:levels": "7",
          "name": "西南大学法学院（38教学楼）",
          "name:en": "Law School of Southwest University (No.38 Teaching Building)"
        },
        "verification": "public_map_unverified"
      }
    },
    {
      "type": "Feature",
      "id": "beibei:39:way:305935506",
      "geometry": {
        "type": "Polygon",
        "coordinates": [
          [
            [
              106.4125652,
              29.8146714
            ],
            [
              106.4125757,
              29.8147023
            ],
            [
              106.4123757,
              29.8147536
            ],
            [
              106.4124014,
              29.8148289
            ],
            [
              106.4125952,
              29.8147793
            ],
            [
              106.4126093,
              29.8148208
            ],
            [
              106.4130486,
              29.8147082
            ],
            [
              106.4130163,
              29.8146133
            ],
            [
              106.412934,
              29.8146343
            ],
            [
              106.412916,
              29.8145816
            ],
            [
              106.4125652,
              29.8146714
            ]
          ]
        ]
      },
      "properties": {
        "campus": "beibei",
        "code": "39",
        "name": "食品科学学院",
        "aliases": [
          "39",
          "39教",
          "39教学楼",
          "食品科学学院"
        ],
        "source_url": "https://www.openstreetmap.org/way/305935506",
        "osm_version": "2",
        "osm_updated_at": "2020-08-26T16:18:32Z",
        "osm_tags": {
          "building": "university",
          "building:levels": "6",
          "name": "食品科学学院",
          "name:en": "College of Food Science"
        },
        "verification": "public_map_unverified",
        "correspondence": {
          "code": "39",
          "expected_name": "食品科学学院",
          "evidence_url": "https://www.swu.edu.cn/info/1153/2370.htm",
          "map_evidence_url": "https://120th.swu.edu.cn/xyhj/xydt.htm",
          "reason": "两个食品学院轮廓需区分：校方北碚总图将39教标在40教北侧，本对象为北侧轮廓；结合弘忠楼门廊照片对应。",
          "verification": "document_correspondence_not_field_survey"
        }
      }
    },
    {
      "type": "Feature",
      "id": "beibei:40:way:840969992",
      "geometry": {
        "type": "Polygon",
        "coordinates": [
          [
            [
              106.4124066,
              29.8146656
            ],
            [
              106.4125717,
              29.8146253
            ],
            [
              106.4124919,
              29.8143793
            ],
            [
              106.4127418,
              29.8143182
            ],
            [
              106.4127836,
              29.8144472
            ],
            [
              106.412945,
              29.8144078
            ],
            [
              106.412886,
              29.8142259
            ],
            [
              106.4128602,
              29.8142322
            ],
            [
              106.4128328,
              29.8141479
            ],
            [
              106.4123612,
              29.814263
            ],
            [
              106.4124097,
              29.8144125
            ],
            [
              106.4123307,
              29.8144318
            ],
            [
              106.4124066,
              29.8146656
            ]
          ]
        ]
      },
      "properties": {
        "campus": "beibei",
        "code": "40",
        "name": "食品科学学院",
        "aliases": [
          "40",
          "40教",
          "40教学楼",
          "食品科学学院"
        ],
        "source_url": "https://www.openstreetmap.org/way/840969992",
        "osm_version": "1",
        "osm_updated_at": "2020-08-26T16:18:32Z",
        "osm_tags": {
          "building": "university",
          "building:levels": "6",
          "name": "食品科学学院",
          "name:en": "College of Food Science"
        },
        "verification": "public_map_unverified",
        "correspondence": {
          "code": "40",
          "expected_name": "食品科学学院",
          "evidence_url": "https://www.swu.edu.cn/info/1153/2369.htm",
          "map_evidence_url": "https://120th.swu.edu.cn/xyhj/xydt.htm",
          "reason": "两个食品学院轮廓需区分：校方北碚总图将40教标在39教南侧，本对象为南侧轮廓；结合弘实楼长条主体照片对应。",
          "verification": "document_correspondence_not_field_survey"
        }
      }
    }
  ]
}
